A/2021 E4,e,116.3599,171.1729,48.2860,727.5280,0.0000502,0.99357290,0.0000,04/25.3767/2022,2000,g 13.5,2.0
# From MPEC 2021-R75
A/2021 F1,e,107.3218,203.4489,146.8177,238.5225,0.0002676,0.99582622,0.0000,04/06.8716/2022,2000,g 17.5,2.0
# From MPEC 2021-J72
C/2021 G1 (Leonard),e,131.5661,270.6931,107.4806,75.17103,0.0015123,0.95445508,0.0844,09/16.0/2021,2000,g 14.0,4.0
# From MPEC 2021-M79
A/2021 G2,e,48.4746,221.1344,343.3823,4481,0.0000033,0.99888954,0.0000,09/09.9336/2024,2000,g  8.5,2.0
# From MPEC 2021-M86
C/2021 G3 (PANSTARRS),h,10/18.6684/2021,102.8834,147.4188,10.6554,1.001141,5.181132,2000,10.5,4.0
# From MPEC 2021-R75
C/2021 J1 (Maury-Attard),e,92.7077,88.3144,147.3033,26.24386,0.0073310,0.93368712,1.5290,09/16.0/2021,2000,g 15.5,4.0
# From MPEC 2021-R75
C/2021 J2 (PANSTARRS),e,156.2071,23.3291,172.0608,116.8468,0.0007803,0.95971895,359.9949,09/16.0/2021,2000,g 12.0,4.0
# From MPEC 2021-R75
P/2021 J3 (ATLAS),e,14.5632,111.2295,125.8247,8.933865,0.0369101,0.45025327,29.7012,09/16.0/2021,2000,g  7.0,4.0
# From MPEC 2021-R75
C/2021 K1 (ATLAS),e,16.2760,140.9054,184.2998,12.73442,0.0216888,0.80385563,2.9158,09/16.0/2021,2000,g 11.0,4.0
# From MPEC 2021-R75
C/2021 K2 (MASTER),h,09/09.0963/2021,100.8400,282.2477,343.3166,1.000623,5.466622,2000,8.0,4.0
# From MPEC 2021-R75
C/2021 K3 (Catalina),h,02/02.3345/2022,134.8075,114.4385,181.9570,1.007186,5.231065,2000,10.0,4.0
# From MPEC 2021-R75
P/2021 L2 (Leonard),e,21.0686,266.6717,51.5330,4.053856,0.1207540,0.52179625,6.4574,09/16.0/2021,2000,g 17.0,4.0
# From MPEC 2021-R75
C/2021 L3 (Borisov),h,02/12.1888/2022,78.5799,344.9724,91.5115,1.001999,8.459921,2000,6.0,4.0
# From MPEC 2021-R75
P/2021 L4 (PANSTARRS),e,16.9617,243.2250,234.6292,3.164998,0.1750427,0.11861898,130.0351,09/16.0/2021,2000,g 13.5,4.0
# From MPEC 2021-P47
P/2021 N1 (ZTF),e,11.5060,301.1633,21.1905,2.977000,0.1918827,0.67678589,19.4660,09/16.0/2021,2000,g 19.0,4.0
# From MPEC 2021-R75
P/2021 N2 (Fuls),e,13.0612,221.7459,177.2392,6.940034,0.0539090,0.45283964,356.8917,09/16.0/2021,2000,g  9.5,4.0
# From MPEC 2021-R75
C/2021 N3 (PANSTARRS),e,26.7337,337.5071,304.3509,167.6093,0.0004542,0.96600708,0.1794,09/16.0/2021,2000,g  8.5,4.0
# From MPEC 2021-R75
P/2021 N4,e,10.0670,239.1565,105.2971,3.037435,0.1861846,0.24246394,3.0527,09/16.0/2021,2000,g 17.0,4.0
# From MPEC 2021-R75
C/2021 O1 (Nishimura),h,08/13.9282/2021,27.5725,41.6082,74.4508,1.000176,0.786988,2000,10.5,4.0
# From MPEC 2021-R75
C/2021 O3 (PANSTARRS),h,04/20.9966/2022,56.7739,189.0262,299.9830,1.000250,0.287175,2000,10.5,4.0
# From MPEC 2021-R75
C/2021 P1 (PANSTARRS),h,06/01.6962/2022,51.6214,359.6713,40.3649,1.000148,4.374819,2000,11.0,4.0
# From MPEC 2021-R75
C/2021 P2 (PANSTARRS),e,150.0189,31.9931,76.4946,1917,0.0000117,0.99735390,0.0000,01/21.9288/2023,2000,g  9.0,4.0
# From MPEC 2021-R75
P/2021 P3 (PANSTARRS),e,27.1620,358.2368,334.3223,4.420323,0.1060530,0.34012068,11.4129,09/16.0/2021,2000,g 14.0,4.0
# From MPEC 2021-R75
C/2021 P4 (ATLAS),e,56.3256,348.1211,175.7629,268.0348,0.0002246,0.99595798,0.0000,07/30.8235/2022,2000,g  9.5,4.0
# From MPEC 2021-R75
C/2021 Q3 (ATLAS),e,77.7702,308.0146,113.7203,79.26447,0.0013966,0.93420108,359.8196,09/16.0/2021,2000,g  8.0,4.0
# From MPEC 2021-R75
C/2021 Q4 (Fuls),h,06/08.8293/2023,71.4745,183.3302,146.8857,1.003505,7.567808,2000,6.0,4.0
# From MPEC 2021-R98
P/2021 Q5 (ATLAS),e,10.7295,239.7003,180.8116,3.228231,0.1699250,0.61814793,2.8305,09/16.0/2021,2000,g 15.0,4.0
# From MPEC 2021-RG7
C/2021 Q6 (PANSTARRS),e,161.8468,133.5431,140.7793,6984,0.0000017,0.99875174,0.0000,03/21.0423/2024,2000,g  6.0,4.0
# From MPEC 2021-RF0
P/2021 R1 (PANSTARRS),e,5.5211,143.4076,220.2569,8.445429,0.0401579,0.42149107,356.3046,09/16.0/2021,2000,g 11.0,4.0
# From MPEC 2021-RF1
C/2021 R2 (PANSTARRS),e,134.4890,16.2955,32.7556,100894,0.0000000,0.99992756,0.0000,12/31.2819/2021,2000,g  7.5,4.0
# From MPEC 2021-RP5
P/2021 R3 (PANSTARRS),e,19.9308,304.2495,3.0064,3.780037,0.1341096,0.33191815,15.0044,09/16.0/2021,2000,g 16.0,4.0
# From MPEC 2021-RP6
P/2021 R4 (Wierzchos),e,21.0348,321.2470,56.5409,5.616093,0.0740547,0.58587439,357.9517,09/16.0/2021,2000,g 16.0,4.0
# From MPEC 2021-RP7
P/2021 R5 (Rankin),e,7.8488,219.9867,166.8862,4.802839,0.0936391,0.30752493,349.1596,09/16.0/2021,2000,g 12.0,4.0
# From  98, 1083
1P/Halley,e,162.2462,58.7878,111.7211,17.87287,0.0130441,0.96620109,169.6316,09/16.0/2021,2000,g  4.0,6.0
# From MPEC 2021-R75
2P/Encke,e,11.8060,334.5141,186.6221,2.217812,0.2984124,0.84913087,133.1717,09/16.0/2021,2000,g 11.5,6.0
# From MPEC 2021-R75
4P/Faye,e,8.0083,192.9316,206.9962,3.823458,0.1318316,0.57659895,0.9452,09/16.0/2021,2000,g  8.0,6.0
# From MPEC 2021-R75
6P/d'Arrest,e,19.5124,138.9355,178.1006,3.498476,0.1506211,0.61280016,359.7322,09/16.0/2021,2000,g  7.5,16.0
# From MPEC 2021-R75
7P/Pons-Winnecke,e,22.3624,93.3718,172.5975,3.414369,0.1562207,0.63852586,17.4792,09/16.0/2021,2000,g 10.0,6.0
# From MPEC 2021-R75
8P/Tuttle,e,54.9108,270.2040,207.4864,5.708055,0.0722723,0.82025111,1.3923,09/16.0/2021,2000,g  8.0,8.0
# From MPEC 2021-F20
9P/Tempel,e,10.4697,68.7172,179.3428,3.146549,0.1765844,0.50923240,329.9914,09/16.0/2021,2000,g 12.5,4.0
# From MPEC 2021-R75
10P/Tempel,e,12.0395,117.8082,195.4950,3.060802,0.1840566,0.53853824,32.3468,09/16.0/2021,2000,g  5.0,10.0
# From MPEC 2017-L52
11P/Tempel-Swift-LINEAR,e,14.4206,238.9066,167.9544,3.283514,0.1656516,0.57708623,48.6615,09/16.0/2021,2000,g  9.0,4.0
# From  27, 604
12P/Pons-Brooks,e,74.1327,255.7718,198.9964,17.14332,0.0138855,0.95439422,346.8403,09/16.0/2021,2000,g  5.0,6.0
# From  27, 604
13P/Olbers,e,44.6214,85.9128,64.4396,16.72548,0.0144091,0.92975915,345.3122,09/16.0/2021,2000,g  5.0,6.0
# From MPEC 2021-F20
14P/Wolf,e,27.9150,202.0513,159.0205,4.258525,0.1121541,0.35704040,155.1130,09/16.0/2021,2000,g  5.5,12.0
# From MPEC 2021-R75
15P/Finlay,e,6.7976,13.7137,347.8240,3.505528,0.1501668,0.71702072,9.6897,09/16.0/2021,2000,g 12.0,4.0
# From MPC 92276
16P/Brooks,e,3.0119,138.8699,245.1783,3.655809,0.1410032,0.48626652,21.2666,09/16.0/2021,2000,g  7.5,10.0
# From MPEC 2021-R75
17P/Holmes,e,19.0322,326.6200,24.4759,3.635365,0.1421943,0.42762794,29.5995,09/16.0/2021,2000,g 10.0,6.0
# From MPEC 2021-P47
19P/Borrelly,e,29.3044,74.2521,351.9016,3.605869,0.1439425,0.63771328,340.0190,09/16.0/2021,2000,g  4.5,10.0
# From MPEC 2021-F20
21P/Giacobini-Zinner,e,32.0405,195.3476,172.8602,3.495682,0.1508017,0.71103553,166.0598,09/16.0/2021,2000,g 11.4,4.0
# From MPEC 2021-F20
22P/Kopff,e,4.7419,120.8358,163.0059,3.440835,0.1544217,0.54881538,331.7341,09/16.0/2021,2000,g 12.4,4.0
# From MPC 14747
23P/Brorsen-Metcalf,e,19.1364,312.4066,128.8129,16.94922,0.0141247,0.97142878,0.0000,08/04.9292/1989,2000,g 10.0,6.0
# From MPC110085
24P/Schaumasse,e,11.5318,78.5888,58.2680,4.053210,0.1207829,0.70823448,169.4925,09/16.0/2021,2000,g  6.5,14.0
# From MPC 94674
26P/Grigg-Skjellerup,e,22.4337,211.5399,2.1776,3.014380,0.1883246,0.64032731,203.5620,09/16.0/2021,2000,g 12.0,16.0
# From MPC 78188
27P/Crommelin,e,29.2193,250.6104,195.9343,9.184794,0.0354079,0.91831569,131.2896,09/16.0/2021,2000,g 12.0,8.0
# From MPEC 2021-R75
28P/Neujmin,e,14.3120,346.3317,347.4101,6.975541,0.0534980,0.77373704,10.0642,09/16.0/2021,2000,g  8.5,6.0
# From MPEC 2021-R75
29P/Schwassmann-Wachmann,e,9.3667,312.3763,49.3728,6.039769,0.0664008,0.04470677,59.8445,09/16.0/2021,2000,g  4.0,4.0
# From MPC110085
30P/Reinmuth,e,8.2277,118.3000,9.6526,3.696978,0.1386544,0.52443467,212.6052,09/16.0/2021,2000,g  9.5,6.0
# From MPEC 2021-F20
31P/Schwassmann-Wachmann,e,4.5473,114.1102,18.1102,4.238367,0.1129552,0.19213183,90.8650,09/16.0/2021,2000,g 13.1,4.0
# From MPC 92276
32P/Comas Sola,e,9.8724,56.0299,54.4567,4.508147,0.1029691,0.55968112,262.3451,09/16.0/2021,2000,g  6.5,8.0
# From MPEC 2013-O31
33P/Daniel,e,22.3001,66.3194,20.5338,4.085701,0.1193450,0.45164853,222.3476,09/16.0/2021,2000,g 10.0,12.0
# From  15, 452
35P/Herschel-Rigollet,e,65.177,356.671,28.968,28.5593,0.006458,0.9739169,0.000,01/04.5603/2092,2000,g  9.0,4.0
# From MPEC 2021-F20
36P/Whipple,e,9.9518,181.8491,200.8701,4.133783,0.1172688,0.26894456,55.3410,09/16.0/2021,2000,g 14.2,4.0
# From MPEC 2021-F20
37P/Forbes,e,8.9573,314.5599,330.1211,3.460400,0.1531139,0.53374903,188.4365,09/16.0/2021,2000,g 13.8,4.0
# From MPEC 2018-S50
38P/Stephan-Oterma,e,18.3643,77.9613,359.5043,11.23781,0.0261626,0.85900958,27.2083,09/16.0/2021,2000,g  3.5,12.0
# From MPEC 2020-W26
39P/Oterma,e,1.5574,299.1340,96.3006,7.379061,0.0491702,0.22362820,329.6298,09/16.0/2021,2000,g  7.0,6.0
# From MPC100283
40P/Vaisala,e,11.4692,133.7775,47.4160,4.952678,0.0894219,0.62962051,223.7304,09/16.0/2021,2000,g  5.5,12.0
# From MPC105240
41P/Tuttle-Giacobini-Kresak,e,9.2209,140.9873,62.2393,3.087329,0.1816895,0.65997347,294.1513,09/16.0/2021,2000,g 10.0,16.0
# From MPC 94283
42P/Neujmin,e,3.9912,150.1761,147.2246,4.872984,0.0916245,0.58529955,215.2100,09/16.0/2021,2000,g 13.0,6.0
# From MPC102956
43P/Wolf-Harrington,e,9.3387,244.1436,224.1212,4.315351,0.1099461,0.43582386,203.8135,09/16.0/2021,2000,g  8.0,6.0
# From MPEC 2021-R75
44P/Reinmuth,e,5.8982,286.4811,58.1263,3.689759,0.1390615,0.42748132,329.4869,09/16.0/2021,2000,g  8.3,6.0
# From MPC103849
45P/Honda-Mrkos-Pajdusakova,e,4.3232,87.7064,327.9137,3.052280,0.1848279,0.81749428,319.0516,09/16.0/2021,2000,g 13.5,8.0
# From MPEC 2021-O56
46P/Wirtanen,e,11.7443,82.1571,356.3386,3.092001,0.1812778,0.65832806,182.8877,09/16.0/2021,2000,g 14.0,6.0
# From MPC xxxxx
47P/Ashbrook-Jackson,e,13.0403,356.9210,357.6468,4.123853,0.1176927,0.31845050,183.2620,09/16.0/2021,2000,g 12.5,4.0
# From MPEC 2021-F20
48P/Johnson,e,12.2059,110.1227,216.6664,3.500871,0.1504665,0.42743801,170.0338,09/16.0/2021,2000,g 12.4,4.0
# From MPEC 2021-F20
49P/Arend-Rigaux,e,19.0456,118.7977,332.9404,3.569860,0.1461259,0.59822414,169.4843,09/16.0/2021,2000,g 13.4,4.0
# From MPEC 2015-S97
50P/Arend,e,19.1005,355.1764,49.3092,4.088685,0.1192144,0.52907547,244.3297,09/16.0/2021,2000,g  9.5,6.0
# From NK 3014
